{"fetched_at":"2026-07-20T18:28:58.427Z","source":"https://celestrak.org/NORAD/elements/gp.php?GROUP=qianfan&FORMAT=JSON","constellation":"qianfan","records":[{"OBJECT_NAME":"QIANFAN-97","OBJECT_ID":"2025-233G","EPOCH":"2026-07-20T06:14:01.232736","CLASSIFICATION_TYPE":"U","MEAN_MOTION":13.5101593,"ECCENTRICITY":0.00020831,"INCLINATION":88.9985,"RA_OF_ASC_NODE":39.8426,"ARG_OF_PERICENTER":94.0429,"MEAN_ANOMALY":266.096,"EPHEMERIS_TYPE":0,"NORAD_CAT_ID":66039,"ELEMENT_SET_NO":999,"REV_AT_EPOCH":3765,"BSTAR":0.000023672803,"MEAN_MOTION_DOT":2.7e-7,"MEAN_MOTION_DDOT":0},{"OBJECT_NAME":"QIANFAN-98","OBJECT_ID":"2025-233H","EPOCH":"2026-07-20T01:05:53.341728","CLASSIFICATION_TYPE":"U","MEAN_MOTION":13.51015644,"ECCENTRICITY":0.00023882,"INCLINATION":88.9975,"RA_OF_ASC_NODE":39.5916,"ARG_OF_PERICENTER":81.5132,"MEAN_ANOMALY":278.629,"EPHEMERIS_TYPE":0,"NORAD_CAT_ID":66040,"ELEMENT_SET_NO":999,"REV_AT_EPOCH":3776,"BSTAR":-0.000001310525,"MEAN_MOTION_DOT":1.1e-7,"MEAN_MOTION_DDOT":0},{"OBJECT_NAME":"QIANFAN-99","OBJECT_ID":"2025-233J","EPOCH":"2026-07-20T06:31:44.651712","CLASSIFICATION_TYPE":"U","MEAN_MOTION":13.51015686,"ECCENTRICITY":0.00023594,"INCLINATION":88.9987,"RA_OF_ASC_NODE":39.8456,"ARG_OF_PERICENTER":86.4008,"MEAN_ANOMALY":273.7413,"EPHEMERIS_TYPE":0,"NORAD_CAT_ID":66041,"ELEMENT_SET_NO":999,"REV_AT_EPOCH":3765,"BSTAR":0.00000363127,"MEAN_MOTION_DOT":1.4e-7,"MEAN_MOTION_DDOT":0},{"OBJECT_NAME":"QIANFAN-100","OBJECT_ID":"2025-233K","EPOCH":"2026-07-20T02:46:31.508544","CLASSIFICATION_TYPE":"U","MEAN_MOTION":13.5101578,"ECCENTRICITY":0.00020586,"INCLINATION":88.9997,"RA_OF_ASC_NODE":39.792,"ARG_OF_PERICENTER":94.2102,"MEAN_ANOMALY":265.9285,"EPHEMERIS_TYPE":0,"NORAD_CAT_ID":66042,"ELEMENT_SET_NO":999,"REV_AT_EPOCH":3768,"BSTAR":0.000004584976,"MEAN_MOTION_DOT":1.5e-7,"MEAN_MOTION_DDOT":0},{"OBJECT_NAME":"QIANFAN-101","OBJECT_ID":"2025-233L","EPOCH":"2026-07-20T06:08:12.664032","CLASSIFICATION_TYPE":"U","MEAN_MOTION":14.26824149,"ECCENTRICITY":0.00167181,"INCLINATION":88.9984,"RA_OF_ASC_NODE":36.7689,"ARG_OF_PERICENTER":42.7466,"MEAN_ANOMALY":317.5025,"EPHEMERIS_TYPE":0,"NORAD_CAT_ID":66043,"ELEMENT_SET_NO":999,"REV_AT_EPOCH":3934,"BSTAR":0.000063819728,"MEAN_MOTION_DOT":0.0000017,"MEAN_MOTION_DDOT":0},{"OBJECT_NAME":"QIANFAN-102","OBJECT_ID":"2025-233M","EPOCH":"2026-07-20T01:29:36.549312","CLASSIFICATION_TYPE":"U","MEAN_MOTION":13.51015619,"ECCENTRICITY":0.00021664,"INCLINATION":88.9984,"RA_OF_ASC_NODE":39.7756,"ARG_OF_PERICENTER":89.6026,"MEAN_ANOMALY":270.5373,"EPHEMERIS_TYPE":0,"NORAD_CAT_ID":66044,"ELEMENT_SET_NO":999,"REV_AT_EPOCH":3767,"BSTAR":0.000019676597,"MEAN_MOTION_DOT":2.5e-7,"MEAN_MOTION_DDOT":0},{"OBJECT_NAME":"QIANFAN-103","OBJECT_ID":"2025-233N","EPOCH":"2026-07-20T06:55:28.202304","CLASSIFICATION_TYPE":"U","MEAN_MOTION":13.51016554,"ECCENTRICITY":0.00020691,"INCLINATION":88.9987,"RA_OF_ASC_NODE":39.8488,"ARG_OF_PERICENTER":94.6098,"MEAN_ANOMALY":265.5289,"EPHEMERIS_TYPE":0,"NORAD_CAT_ID":66045,"ELEMENT_SET_NO":999,"REV_AT_EPOCH":3765,"BSTAR":0.000025996595,"MEAN_MOTION_DOT":2.9e-7,"MEAN_MOTION_DDOT":0},{"OBJECT_NAME":"QIANFAN-104","OBJECT_ID":"2025-233P","EPOCH":"2026-07-20T01:41:37.584096","CLASSIFICATION_TYPE":"U","MEAN_MOTION":13.51022081,"ECCENTRICITY":0.00020867,"INCLINATION":88.9992,"RA_OF_ASC_NODE":39.7745,"ARG_OF_PERICENTER":87.1288,"MEAN_ANOMALY":273.0102,"EPHEMERIS_TYPE":0,"NORAD_CAT_ID":66046,"ELEMENT_SET_NO":999,"REV_AT_EPOCH":3767,"BSTAR":0.00001743186,"MEAN_MOTION_DOT":2.3e-7,"MEAN_MOTION_DDOT":0},{"OBJECT_NAME":"QIANFAN-105","OBJECT_ID":"2025-233Q","EPOCH":"2026-07-20T01:53:30.648480","CLASSIFICATION_TYPE":"U","MEAN_MOTION":13.51021253,"ECCENTRICITY":0.00021963,"INCLINATION":89.0005,"RA_OF_ASC_NODE":39.621,"ARG_OF_PERICENTER":92.4474,"MEAN_ANOMALY":267.6929,"EPHEMERIS_TYPE":0,"NORAD_CAT_ID":66047,"ELEMENT_SET_NO":999,"REV_AT_EPOCH":3778,"BSTAR":0.000009187803,"MEAN_MOTION_DOT":1.8e-7,"MEAN_MOTION_DDOT":0},{"OBJECT_NAME":"QIANFAN-106","OBJECT_ID":"2025-233R","EPOCH":"2026-07-20T01:47:26.213280","CLASSIFICATION_TYPE":"U","MEAN_MOTION":13.51015603,"ECCENTRICITY":0.00023373,"INCLINATION":88.9974,"RA_OF_ASC_NODE":39.8241,"ARG_OF_PERICENTER":83.2241,"MEAN_ANOMALY":276.9176,"EPHEMERIS_TYPE":0,"NORAD_CAT_ID":66048,"ELEMENT_SET_NO":999,"REV_AT_EPOCH":3762,"BSTAR":0.000002739851,"MEAN_MOTION_DOT":1.4e-7,"MEAN_MOTION_DDOT":0},{"OBJECT_NAME":"QIANFAN-107","OBJECT_ID":"2025-233S","EPOCH":"2026-07-20T01:59:15.894240","CLASSIFICATION_TYPE":"U","MEAN_MOTION":13.51015082,"ECCENTRICITY":0.00020576,"INCLINATION":88.9989,"RA_OF_ASC_NODE":39.861,"ARG_OF_PERICENTER":93.6996,"MEAN_ANOMALY":266.4391,"EPHEMERIS_TYPE":0,"NORAD_CAT_ID":66049,"ELEMENT_SET_NO":999,"REV_AT_EPOCH":3763,"BSTAR":-0.000004204122,"MEAN_MOTION_DOT":9e-8,"MEAN_MOTION_DDOT":0},{"OBJECT_NAME":"QIANFAN-108","OBJECT_ID":"2025-233T","EPOCH":"2026-07-20T02:05:09.595968","CLASSIFICATION_TYPE":"U","MEAN_MOTION":13.51016309,"ECCENTRICITY":0.00022972,"INCLINATION":88.9982,"RA_OF_ASC_NODE":39.8459,"ARG_OF_PERICENTER":84.0066,"MEAN_ANOMALY":276.1347,"EPHEMERIS_TYPE":0,"NORAD_CAT_ID":66050,"ELEMENT_SET_NO":999,"REV_AT_EPOCH":3763,"BSTAR":0.000002330979,"MEAN_MOTION_DOT":1.4e-7,"MEAN_MOTION_DDOT":0},{"OBJECT_NAME":"QIANFAN-109","OBJECT_ID":"2026-075A","EPOCH":"2026-07-20T05:58:47.065440","CLASSIFICATION_TYPE":"U","MEAN_MOTION":13.51024854,"ECCENTRICITY":0.00024163,"INCLINATION":88.9918,"RA_OF_ASC_NODE":317.637,"ARG_OF_PERICENTER":114.857,"MEAN_ANOMALY":245.2832,"EPHEMERIS_TYPE":0,"NORAD_CAT_ID":68636,"ELEMENT_SET_NO":999,"REV_AT_EPOCH":1425,"BSTAR":0.00015912497,"MEAN_MOTION_DOT":0.00000115,"MEAN_MOTION_DDOT":0},{"OBJECT_NAME":"QIANFAN-110","OBJECT_ID":"2026-075B","EPOCH":"2026-07-20T06:10:38.188416","CLASSIFICATION_TYPE":"U","MEAN_MOTION":13.51016469,"ECCENTRICITY":0.00020586,"INCLINATION":88.9918,"RA_OF_ASC_NODE":317.6576,"ARG_OF_PERICENTER":104.5311,"MEAN_ANOMALY":255.6068,"EPHEMERIS_TYPE":0,"NORAD_CAT_ID":68637,"ELEMENT_SET_NO":999,"REV_AT_EPOCH":1425,"BSTAR":0.00015130611,"MEAN_MOTION_DOT":0.0000011,"MEAN_MOTION_DDOT":0},{"OBJECT_NAME":"QIANFAN-111","OBJECT_ID":"2026-075C","EPOCH":"2026-07-20T05:52:48.217728","CLASSIFICATION_TYPE":"U","MEAN_MOTION":13.51023356,"ECCENTRICITY":0.00020314,"INCLINATION":88.9917,"RA_OF_ASC_NODE":317.6183,"ARG_OF_PERICENTER":103.7461,"MEAN_ANOMALY":256.3916,"EPHEMERIS_TYPE":0,"NORAD_CAT_ID":68638,"ELEMENT_SET_NO":999,"REV_AT_EPOCH":1427,"BSTAR":0.00016793947,"MEAN_MOTION_DOT":0.0000012,"MEAN_MOTION_DDOT":0},{"OBJECT_NAME":"QIANFAN-112","OBJECT_ID":"2026-075D","EPOCH":"2026-07-20T06:45:58.984416","CLASSIFICATION_TYPE":"U","MEAN_MOTION":13.51013866,"ECCENTRICITY":0.00022137,"INCLINATION":88.9916,"RA_OF_ASC_NODE":317.6232,"ARG_OF_PERICENTER":117.8713,"MEAN_ANOMALY":242.2663,"EPHEMERIS_TYPE":0,"NORAD_CAT_ID":68639,"ELEMENT_SET_NO":999,"REV_AT_EPOCH":1427,"BSTAR":0.00017292973,"MEAN_MOTION_DOT":0.00000124,"MEAN_MOTION_DDOT":0}]}
