QIANFAN-97              
1 66039U 25233G   26201.25973649  .00000027  00000+0  23673-4 0  9998
2 66039  88.9985  39.8426 0002083  94.0429 266.0960 13.51015930 37654
QIANFAN-98              
1 66040U 25233H   26201.04575627  .00000011  00000+0 -13105-5 0  9995
2 66040  88.9975  39.5916 0002388  81.5132 278.6290 13.51015644 37765
QIANFAN-99              
1 66041U 25233J   26201.27204458  .00000014  00000+0  36313-5 0  9990
2 66041  88.9987  39.8456 0002359  86.4008 273.7413 13.51015686 37652
QIANFAN-100             
1 66042U 25233K   26201.11564246  .00000015  00000+0  45850-5 0  9995
2 66042  88.9997  39.7920 0002058  94.2102 265.9285 13.51015780 37685
QIANFAN-101             
1 66043U 25233L   26201.25570213  .00000170  00000+0  63820-4 0  9990
2 66043  88.9984  36.7689 0016718  42.7466 317.5025 14.26824149 39341
QIANFAN-102             
1 66044U 25233M   26201.06222858  .00000025  00000+0  19677-4 0  9999
2 66044  88.9984  39.7756 0002166  89.6026 270.5373 13.51015619 37673
QIANFAN-103             
1 66045U 25233N   26201.28852086  .00000029  00000+0  25997-4 0  9992
2 66045  88.9987  39.8488 0002069  94.6098 265.5289 13.51016554 37654
QIANFAN-104             
1 66046U 25233P   26201.07057389  .00000023  00000+0  17432-4 0  9992
2 66046  88.9992  39.7745 0002086  87.1288 273.0102 13.51022081 37675
QIANFAN-105             
1 66047U 25233Q   26201.07882695  .00000018  00000+0  91878-5 0  9990
2 66047  89.0005  39.6210 0002196  92.4474 267.6929 13.51021253 37785
QIANFAN-106             
1 66048U 25233R   26201.07460895  .00000014  00000+0  27399-5 0  9998
2 66048  88.9974  39.8241 0002337  83.2241 276.9176 13.51015603 37624
QIANFAN-107             
1 66049U 25233S   26201.08282285  .00000009  00000+0 -42041-5 0  9991
2 66049  88.9989  39.8610 0002057  93.6996 266.4391 13.51015082 37637
QIANFAN-108             
1 66050U 25233T   26201.08691662  .00000014  00000+0  23310-5 0  9999
2 66050  88.9982  39.8459 0002297  84.0066 276.1347 13.51016309 37633
QIANFAN-109             
1 68636U 26075A   26201.24915585  .00000115  00000+0  15912-3 0  9996
2 68636  88.9918 317.6370 0002416 114.8570 245.2832 13.51024854 14251
QIANFAN-110             
1 68637U 26075B   26201.25738644  .00000110  00000+0  15131-3 0  9995
2 68637  88.9918 317.6576 0002058 104.5311 255.6068 13.51016469 14250
QIANFAN-111             
1 68638U 26075C   26201.24500252  .00000120  00000+0  16794-3 0  9994
2 68638  88.9917 317.6183 0002031 103.7461 256.3916 13.51023356 14277
QIANFAN-112             
1 68639U 26075D   26201.28193269  .00000124  00000+0  17293-3 0  9994
2 68639  88.9916 317.6232 0002213 117.8713 242.2663 13.51013866 14278
